[{"OBJECT_NAME":"HUANJING 1A (HJ-1A)","OBJECT_ID":"2008-041A","EPOCH":"2026-03-09T23:20:18.926592","MEAN_MOTION":14.83722198,"ECCENTRICITY":0.00205789,"INCLINATION":97.6638,"RA_OF_ASC_NODE":58.6973,"ARG_OF_PERICENTER":102.9318,"MEAN_ANOMALY":257.4197,"EPHEMERIS_TYPE":0,"CLASSIFICATION_TYPE":"U","NORAD_CAT_ID":33320,"ELEMENT_SET_NO":999,"REV_AT_EPOCH":94369,"BSTAR":0.0003142853,"MEAN_MOTION_DOT":2.557e-5,"MEAN_MOTION_DDOT":0},{"OBJECT_NAME":"IRIDIUM 33 DEB","OBJECT_ID":"1997-051QJ","EPOCH":"2026-03-07T23:10:11.898336","MEAN_MOTION":14.85301332,"ECCENTRICITY":0.00274699,"INCLINATION":86.3195,"RA_OF_ASC_NODE":261.5054,"ARG_OF_PERICENTER":96.9256,"MEAN_ANOMALY":263.5094,"EPHEMERIS_TYPE":0,"CLASSIFICATION_TYPE":"U","NORAD_CAT_ID":35488,"ELEMENT_SET_NO":999,"REV_AT_EPOCH":89530,"BSTAR":0.0018260223,"MEAN_MOTION_DOT":0.00015835,"MEAN_MOTION_DDOT":0}]
